{
  "type": "FeatureCollection",
  "features": [
    {
      "type": "Feature",
      "properties": {
        "norad_id": 66596,
        "name": "STARLINK-35811",
        "group": "last-30-days",
        "lat": -38.781855242871906,
        "lon": 118.76488530988401,
        "alt_km": 345.9554928603666,
        "timestamp": "2025-12-04T21:36:14.653323+00:00",
        "meta_object_name": "STARLINK-35811",
        "meta_object_id": "2025-270J",
        "meta_epoch": "2025-12-04T15:59:44.301408",
        "meta_mean_motion": 15.75427926,
        "meta_eccentricity": 0.00046165,
        "meta_inclination": 42.9987,
        "meta_ra_of_asc_node": 240.6055,
        "meta_arg_of_pericenter": 284.7362,
        "meta_mean_anomaly": 75.2995,
        "meta_ephemeris_type": 0,
        "meta_classification_type": "U",
        "meta_norad_cat_id": 66596,
        "meta_element_set_no": 999,
        "meta_rev_at_epoch": 319,
        "meta_bstar": -0.0086061754,
        "meta_mean_motion_dot": -0.01194988,
        "meta_mean_motion_ddot": 0,
        "tle_line1": "1 66596U 25270J   25338.66648497 -.01194988  00000+0 -86062-2 0  9994",
        "tle_line2": "2 66596  42.9987 240.6055 0004616 284.7362  75.2995 15.75427926  3192"
      },
      "geometry": {
        "type": "Point",
        "coordinates": [
          118.76488530988401,
          -38.781855242871906
        ]
      }
    },
    {
      "type": "Feature",
      "properties": {
        "norad_id": 66597,
        "name": "STARLINK-35820",
        "group": "last-30-days",
        "lat": -42.96727588762645,
        "lon": 147.32242282530328,
        "alt_km": 323.8808081170955,
        "timestamp": "2025-12-04T21:36:14.653333+00:00",
        "meta_object_name": "STARLINK-35820",
        "meta_object_id": "2025-270K",
        "meta_epoch": "2025-12-04T15:54:56.043360",
        "meta_mean_motion": 15.78717724,
        "meta_eccentricity": 0.00199747,
        "meta_inclination": 43.0025,
        "meta_ra_of_asc_node": 240.58,
        "meta_arg_of_pericenter": 286.3097,
        "meta_mean_anomaly": 73.5577,
        "meta_ephemeris_type": 0,
        "meta_classification_type": "U",
        "meta_norad_cat_id": 66597,
        "meta_element_set_no": 999,
        "meta_rev_at_epoch": 319,
        "meta_bstar": 0.0039060844,
        "meta_mean_motion_dot": 0.00781523,
        "meta_mean_motion_ddot": 0,
        "tle_line1": "1 66597U 25270K   25338.66314865  .00781523  00000+0  39061-2 0  9995",
        "tle_line2": "2 66597  43.0025 240.5800 0019974 286.3097  73.5577 15.78717724  3199"
      },
      "geometry": {
        "type": "Point",
        "coordinates": [
          147.32242282530328,
          -42.96727588762645
        ]
      }
    },
    {
      "type": "Feature",
      "properties": {
        "norad_id": 66598,
        "name": "STARLINK-35981",
        "group": "last-30-days",
        "lat": -40.54975910161463,
        "lon": 125.83699274295213,
        "alt_km": 346.2388914386456,
        "timestamp": "2025-12-04T21:36:14.653343+00:00",
        "meta_object_name": "STARLINK-35981",
        "meta_object_id": "2025-270L",
        "meta_epoch": "2025-12-04T15:58:16.579488",
        "meta_mean_motion": 15.7542585,
        "meta_eccentricity": 0.00054005,
        "meta_inclination": 42.9991,
        "meta_ra_of_asc_node": 240.597,
        "meta_arg_of_pericenter": 302.4449,
        "meta_mean_anomaly": 57.5898,
        "meta_ephemeris_type": 0,
        "meta_classification_type": "U",
        "meta_norad_cat_id": 66598,
        "meta_element_set_no": 999,
        "meta_rev_at_epoch": 292,
        "meta_bstar": -0.0087257872,
        "meta_mean_motion_dot": -0.01210213,
        "meta_mean_motion_ddot": 0,
        "tle_line1": "1 66598U 25270L   25338.66546967 -.01210213  00000+0 -87258-2 0  9993",
        "tle_line2": "2 66598  42.9991 240.5970 0005400 302.4449  57.5898 15.75425850  2929"
      },
      "geometry": {
        "type": "Point",
        "coordinates": [
          125.83699274295213,
          -40.54975910161463
        ]
      }
    },
    {
      "type": "Feature",
      "properties": {
        "norad_id": 66599,
        "name": "STARLINK-35930",
        "group": "last-30-days",
        "lat": -39.792673570879636,
        "lon": 122.55106217705217,
        "alt_km": 348.50469235922264,
        "timestamp": "2025-12-04T21:36:14.653357+00:00",
        "meta_object_name": "STARLINK-35930",
        "meta_object_id": "2025-270M",
        "meta_epoch": "2025-12-04T00:45:37.693728",
        "meta_mean_motion": 15.75348253,
        "meta_eccentricity": 0.00019861,
        "meta_inclination": 42.9984,
        "meta_ra_of_asc_node": 244.4479,
        "meta_arg_of_pericenter": 267.8069,
        "meta_mean_anomaly": 92.2573,
        "meta_ephemeris_type": 0,
        "meta_classification_type": "U",
        "meta_norad_cat_id": 66599,
        "meta_element_set_no": 999,
        "meta_rev_at_epoch": 298,
        "meta_bstar": -0.0039524111,
        "meta_mean_motion_dot": -0.00575796,
        "meta_mean_motion_ddot": 0,
        "tle_line1": "1 66599U 25270M   25338.03168627 -.00575796  00000+0 -39524-2 0  9990",
        "tle_line2": "2 66599  42.9984 244.4479 0001986 267.8069  92.2573 15.75348253  2989"
      },
      "geometry": {
        "type": "Point",
        "coordinates": [
          122.55106217705217,
          -39.792673570879636
        ]
      }
    },
    {
      "type": "Feature",
      "properties": {
        "norad_id": 66600,
        "name": "STARLINK-35980",
        "group": "last-30-days",
        "lat": -42.97906717189568,
        "lon": 149.3256618521128,
        "alt_km": 326.09224391871703,
        "timestamp": "2025-12-04T21:36:14.653369+00:00",
        "meta_object_name": "STARLINK-35980",
        "meta_object_id": "2025-270N",
        "meta_epoch": "2025-12-04T03:46:22.938816",
        "meta_mean_motion": 15.79349544,
        "meta_eccentricity": 0.00188251,
        "meta_inclination": 43.0002,
        "meta_ra_of_asc_node": 243.6684,
        "meta_arg_of_pericenter": 318.1688,
        "meta_mean_anomaly": 41.7743,
        "meta_ephemeris_type": 0,
        "meta_classification_type": "U",
        "meta_norad_cat_id": 66600,
        "meta_element_set_no": 999,
        "meta_rev_at_epoch": 290,
        "meta_bstar": 0.0025460562,
        "meta_mean_motion_dot": 0.00507436,
        "meta_mean_motion_ddot": 0,
        "tle_line1": "1 66600U 25270N   25338.15720994  .00507436  00000+0  25461-2 0  9996",
        "tle_line2": "2 66600  43.0002 243.6684 0018825 318.1688  41.7743 15.79349544  2909"
      },
      "geometry": {
        "type": "Point",
        "coordinates": [
          149.3256618521128,
          -42.97906717189568
        ]
      }
    },
    {
      "type": "Feature",
      "properties": {
        "norad_id": 66601,
        "name": "STARLINK-35978",
        "group": "last-30-days",
        "lat": -41.061504801749706,
        "lon": 128.39226299155067,
        "alt_km": 344.5733083551595,
        "timestamp": "2025-12-04T21:36:14.653379+00:00",
        "meta_object_name": "STARLINK-35978",
        "meta_object_id": "2025-270P",
        "meta_epoch": "2025-12-04T02:15:56.284416",
        "meta_mean_motion": 15.75298164,
        "meta_eccentricity": 0.00071106,
        "meta_inclination": 42.9977,
        "meta_ra_of_asc_node": 244.0577,
        "meta_arg_of_pericenter": 214.9985,
        "meta_mean_anomaly": 145.0417,
        "meta_ephemeris_type": 0,
        "meta_classification_type": "U",
        "meta_norad_cat_id": 66601,
        "meta_element_set_no": 999,
        "meta_rev_at_epoch": 283,
        "meta_bstar": -0.0021837609,
        "meta_mean_motion_dot": -0.00327668,
        "meta_mean_motion_ddot": 0,
        "tle_line1": "1 66601U 25270P   25338.09440144 -.00327668  00000+0 -21838-2 0  9999",
        "tle_line2": "2 66601  42.9977 244.0577 0007110 214.9985 145.0417 15.75298164  2838"
      },
      "geometry": {
        "type": "Point",
        "coordinates": [
          128.39226299155067,
          -41.061504801749706
        ]
      }
    },
    {
      "type": "Feature",
      "properties": {
        "norad_id": 66602,
        "name": "STARLINK-36050",
        "group": "last-30-days",
        "lat": -30.879104044253385,
        "lon": -160.88177913552246,
        "alt_km": 259.542840834516,
        "timestamp": "2025-12-04T21:36:14.653389+00:00",
        "meta_object_name": "STARLINK-36050",
        "meta_object_id": "2025-270Q",
        "meta_epoch": "2025-12-03T23:11:57.245856",
        "meta_mean_motion": 15.81066635,
        "meta_eccentricity": 0.00264193,
        "meta_inclination": 42.9973,
        "meta_ra_of_asc_node": 244.8203,
        "meta_arg_of_pericenter": 271.6989,
        "meta_mean_anomaly": 88.0856,
        "meta_ephemeris_type": 0,
        "meta_classification_type": "U",
        "meta_norad_cat_id": 66602,
        "meta_element_set_no": 999,
        "meta_rev_at_epoch": 287,
        "meta_bstar": 0.03628424,
        "meta_mean_motion_dot": 0.09497794,
        "meta_mean_motion_ddot": 0,
        "tle_line1": "1 66602U 25270Q   25337.96663479  .09497794  00000+0  36284-1 0  9998",
        "tle_line2": "2 66602  42.9973 244.8203 0026419 271.6989  88.0856 15.81066635  2876"
      },
      "geometry": {
        "type": "Point",
        "coordinates": [
          -160.88177913552246,
          -30.879104044253385
        ]
      }
    }
  ]
}